NORAD_CAT_ID,OBJECT_NAME,OBJECT_TYPE,EPOCH,MEAN_MOTION,ECCENTRICITY,INCLINATION,RA_OF_ASC_NODE,ARG_OF_PERICENTER,MEAN_ANOMALY,BSTAR,MEAN_MOTION_DOT,MEAN_MOTION_DDOT,TLE_LINE0,TLE_LINE1,TLE_LINE2,SEMIMAJOR_AXIS,PERIOD,APOGEE,PERIGEE,DECAYED
54053.0,STARLINK-5176,PAYLOAD,2022-12-19 08:23:13,15.08832997,0.0001781,53.2148,225.1172,45.7349,314.3789,0.00010869,1.442e-05,0.0,0 STARLINK-5176,1 54053U 22136C   22353.34945937  .00001442  00000-0  10869-3 0  9998,2 54053  53.2148 225.1172 0001781  45.7349 314.3789 15.08832997  9254,6917.901999999999,95.438,540.999,538.535,0.0
54053.0,STARLINK-5176,PAYLOAD,2022-12-20 00:17:04,15.088449300000002,0.0001746,53.2148,222.1434,51.1549,308.9598,0.00016415,2.326e-05,0.0,0 STARLINK-5176,1 54053U 22136C   22354.01185282  .00002326  00000-0  16415-3 0  9997,2 54053  53.2148 222.1434 0001746  51.1549 308.9598 15.08844930  9837,6917.865,95.437,540.938,538.5219999999998,0.0
54053.0,STARLINK-5176,PAYLOAD,2022-12-20 08:14:00,15.08831843,0.0002142,53.2141,220.6553,55.8919,304.2276,1.877e-05,1e-07,0.0,0 STARLINK-5176,1 54053U 22136C   22354.34306371  .00000010  00000-0  18770-4 0  9992,2 54053  53.2141 220.6553 0002142  55.8919 304.2276 15.08831843  9884,6917.905,95.438,541.252,538.289,0.0
54053.0,STARLINK-5176,PAYLOAD,2022-12-21 08:04:47,15.08836092,0.0001668,53.2143,216.1964,58.1188,301.9966,6.7861e-05,7.92e-06,0.0,0 STARLINK-5176,1 54053U 22136C   22355.33666651  .00000792  00000-0  67861-4 0  9994,2 54053  53.2143 216.1964 0001668  58.1188 301.9966 15.08836092  9553,6917.892,95.438,540.911,538.6030000000002,0.0
54053.0,STARLINK-5176,PAYLOAD,2022-12-21 17:37:06,15.08842199,0.00017,53.2148,214.4121,61.2195,298.8968,0.00011343,1.518e-05,0.0,0 STARLINK-5176,1 54053U 22136C   22355.73410463  .00001518  00000-0  11343-3 0  9996,2 54053  53.2148 214.4121 0001700  61.2195 298.8968 15.08842199 10096,6917.874,95.437,540.915,538.563,0.0
54053.0,STARLINK-5176,PAYLOAD,2022-12-22 07:55:34,15.08849313,0.0001658,53.214,211.736,60.8124,299.3034,0.00033412,5.035e-05,0.0,0 STARLINK-5176,1 54053U 22136C   22356.33026267  .00005035  00000-0  33412-3 0  9997,2 54053  53.2140 211.7360 0001658  60.8124 299.3034 15.08849313  9703,6917.852,95.437,540.864,538.57,0.0
54053.0,STARLINK-5176,PAYLOAD,2022-12-22 20:38:39,15.08846601,0.0001636999999999,53.2143,209.3567,62.4171,297.6987,0.0003024,4.529e-05,0.0,0 STARLINK-5176,1 54053U 22136C   22356.86018420  .00004529  00000-0  30240-3 0  9990,2 54053  53.2143 209.3567 0001637  62.4171 297.6987 15.08846601  9788,6917.86,95.437,540.8580000000002,538.5930000000002,0.0
54053.0,STARLINK-5176,PAYLOAD,2022-12-22 22:14:03,15.0884331,0.0001583,53.2138,209.0593,61.5006,298.6146,0.00016191,2.29e-05,0.0,0 STARLINK-5176,1 54053U 22136C   22356.92642428  .00002290  00000-0  16191-3 0  9990,2 54053  53.2138 209.0593 0001583  61.5006 298.6146 15.08843310 10273,6917.87,95.437,540.83,538.64,0.0
54053.0,STARLINK-5176,PAYLOAD,2022-12-23 14:07:54,15.08847379,0.0001604,53.2139,206.0855,60.8318,299.2835,0.00016772,2.383e-05,0.0,0 STARLINK-5176,1 54053U 22136C   22357.58882131  .00002383  00000-0  16772-3 0  9998,2 54053  53.2139 206.0855 0001604  60.8318 299.2835 15.08847379  9891,6917.858,95.437,540.832,538.613,0.0
54053.0,STARLINK-5176,PAYLOAD,2022-12-23 18:54:03,15.08851244,0.0001605,53.2139,205.1933,60.9379,299.1774,0.00022115,3.234e-05,0.0,0 STARLINK-5176,1 54053U 22136C   22357.78753910  .00003234  00000-0  22115-3 0  9996,2 54053  53.2139 205.1933 0001605  60.9379 299.1774 15.08851244  9928,6917.846,95.437,540.821,538.601,0.0
54053.0,STARLINK-5176,PAYLOAD,2022-12-23 23:40:12,15.08852659,0.0001435,53.2149,204.3005,63.3263,296.7876,0.0002287,3.355e-05,0.0,0 STARLINK-5176,1 54053U 22136C   22357.98625721  .00003355  00000-0  22870-3 0  9998,2 54053  53.2149 204.3005 0001435  63.3263 296.7876 15.08852659 10435,6917.842,95.437,540.6990000000002,538.714,0.0
54053.0,STARLINK-5176,PAYLOAD,2022-12-24 20:20:13,15.08842371,0.0001668,53.2157,200.4354,72.4681,287.6493,0.000133,1.829e-05,0.0,0 STARLINK-5176,1 54053U 22136C   22358.84737843  .00001829  00000-0  13300-3 0  9995,2 54053  53.2157 200.4354 0001668  72.4681 287.6493 15.08842371 10569,6917.873000000001,95.437,540.8919999999998,538.5840000000002,0.0
54053.0,STARLINK-5176,PAYLOAD,2022-12-24 23:30:59,15.08840171,0.0001710999999999,53.2156,199.8405,78.3184,281.8,9.2492e-05,1.184e-05,0.0,0 STARLINK-5176,1 54053U 22136C   22358.97985899  .00001184  00000-0  92492-4 0  9999,2 54053  53.2156 199.8405 0001711  78.3184 281.8000 15.08840171 10104,6917.88,95.438,540.929,538.561,0.0
54053.0,STARLINK-5176,PAYLOAD,2022-12-25 21:46:23,15.08845702,0.0001629999999999,53.2159,195.6776,58.4822,301.6329,1.2127e-05,-9.5e-07,0.0,0 STARLINK-5176,1 54053U 22136C   22359.90721298 -.00000095  00000-0  12127-4 0  9992,2 54053  53.2159 195.6776 0001630  58.4822 301.6329 15.08845702 10245,6917.863,95.437,540.856,538.6,0.0
54053.0,STARLINK-5176,PAYLOAD,2022-12-25 23:21:46,15.0884613,0.0001598,53.217,195.3803,58.6706,301.4442,1.9705e-05,2.6e-07,0.0,0 STARLINK-5176,1 54053U 22136C   22359.97345357  .00000026  00000-0  19705-4 0  9999,2 54053  53.2170 195.3803 0001598  58.6706 301.4442 15.08846130 10736,6917.861999999999,95.437,540.832,538.621,0.0
54053.0,STARLINK-5176,PAYLOAD,2022-12-26 13:40:14,15.08838726,0.0001567,53.217,192.7038,61.554,298.561,9.9122e-05,1.29e-05,0.0,0 STARLINK-5176,1 54053U 22136C   22360.56961511  .00001290  00000-0  99122-4 0  9997,2 54053  53.2170 192.7038 0001567  61.5540 298.5610 15.08838726 10344,6917.884,95.438,540.8330000000002,538.665,0.0
54053.0,STARLINK-5176,PAYLOAD,2022-12-26 20:01:47,15.08831727,0.0001561,53.2172,191.5141,62.394,297.7211,2.7471e-05,1.49e-06,0.0,0 STARLINK-5176,1 54053U 22136C   22360.83458216  .00000149  00000-0  27471-4 0  9990,2 54053  53.2172 191.5141 0001561  62.3940 297.7211 15.08831727 10864,6917.906,95.438,540.851,538.691,0.0
54053.0,STARLINK-5176,PAYLOAD,2022-12-27 13:31:02,15.0883625,0.0001578,53.2173,188.2435,62.1713,297.9438,1.6733e-05,-2.2e-07,0.0,0 STARLINK-5176,1 54053U 22136C   22361.56322213 -.00000022  00000-0  16733-4 0  9998,2 54053  53.2173 188.2435 0001578  62.1713 297.9438 15.08836250 10496,6917.892,95.438,540.8480000000002,538.665,0.0
54053.0,STARLINK-5176,PAYLOAD,2022-12-27 19:52:34,15.08838541,0.000159,53.2173,187.0542,62.5014,297.6140000000001,3.6252e-05,2.89e-06,0.0,0 STARLINK-5176,1 54053U 22136C   22361.82818079  .00000289  00000-0  36252-4 0  9999,2 54053  53.2173 187.0542 0001590  62.5014 297.6140 15.08838541 10531,6917.885,95.438,540.85,538.65,0.0
54053.0,STARLINK-5176,PAYLOAD,2022-12-27 21:27:57,15.08839505,0.0001592,53.2173,186.7567,61.1387,298.9764,4.6539e-05,4.53e-06,0.0,0 STARLINK-5176,1 54053U 22136C   22361.89442054  .00000453  00000-0  46539-4 0  9994,2 54053  53.2173 186.7567 0001592  61.1387 298.9764 15.08839505 11026,6917.882,95.438,540.8480000000002,538.646,0.0
54053.0,STARLINK-5176,PAYLOAD,2022-12-28 11:46:25,15.08867098,0.0001771999999999,53.2171,184.0802,56.9169,303.1993,-0.00034557,-5.788e-05,0.0,0 STARLINK-5176,1 54053U 22136C   22362.49056828 -.00005788  00000-0 -34557-3 0  9995,2 54053  53.2171 184.0802 0001772  56.9169 303.1993 15.08867098 10634,6917.7980000000025,95.436,540.888,538.437,0.0
54053.0,STARLINK-5176,PAYLOAD,2022-12-28 14:57:12,15.08836861,0.0001574,53.2168,183.4855,59.2755,300.8392,0.00015155,2.125e-05,0.0,0 STARLINK-5176,1 54053U 22136C   22362.62306050  .00002125  00000-0  15155-3 0  9998,2 54053  53.2168 183.4855 0001574  59.2755 300.8392 15.08836861 11135,6917.89,95.438,540.844,538.6659999999998,0.0
54053.0,STARLINK-5176,PAYLOAD,2022-12-29 06:51:03,15.08842382,0.00016,53.2167,180.5119,60.7088,299.4064,0.00016821,2.39e-05,0.0,0 STARLINK-5176,1 54053U 22136C   22363.28545913  .00002390  00000-0  16821-3 0  9999,2 54053  53.2167 180.5119 0001600  60.7088 299.4064 15.08842382 10752,6917.873000000001,95.437,540.845,538.631,0.0
54053.0,STARLINK-5176,PAYLOAD,2022-12-29 21:09:32,15.08833881,0.0001554999999999,53.2166,177.8352,61.8624,298.2525,3.605e-05,2.86e-06,0.0,0 STARLINK-5176,1 54053U 22136C   22363.88162943  .00000286  00000-0  36050-4 0  9992,2 54053  53.2166 177.8352 0001555  61.8624 298.2525 15.08833881 11323,6917.899,95.438,540.84,538.688,0.0
54053.0,STARLINK-5176,PAYLOAD,2022-12-30 11:28:00,15.08843713,0.0001494,53.2178,175.1595,48.3397,311.7723,6.639e-05,7.69e-06,0.0,0 STARLINK-5176,1 54053U 22136C   22364.47778340  .00000769  00000-0  66390-4 0  9998,2 54053  53.2178 175.1595 0001494  48.3397 311.7723 15.08843713 11411,6917.869000000002,95.437,540.768,538.701,0.0
54053.0,STARLINK-5176,PAYLOAD,2022-12-30 17:49:30,15.08875481,0.0002061,53.2176,173.972,46.5858,313.5305,0.00030766,4.616e-05,0.0,0 STARLINK-5176,1 54053U 22136C   22364.74271264  .00004616  00000-0  30766-3 0  9993,2 54053  53.2176 173.9720 0002061  46.5858 313.5305 15.08875481 11455,6917.772,95.435,541.063,538.211,0.0
54053.0,STARLINK-5176,PAYLOAD,2022-12-31 04:57:14,15.08842456,0.0001742,53.2165,171.8884,59.2214,300.8949,1.992e-05,2.9e-07,0.0,0 STARLINK-5176,1 54053U 22136C   22365.20641938  .00000029  00000-0  19920-4 0  9998,2 54053  53.2165 171.8884 0001742  59.2214 300.8949 15.08842456 11520,6917.873000000001,95.437,540.943,538.533,0.0
54053.0,STARLINK-5176,PAYLOAD,2022-12-31 11:18:47,15.08838886,0.0001554,53.2176,170.6979,56.2246,303.8894,0.00013266,1.824e-05,0.0,0 STARLINK-5176,1 54053U 22136C   22365.47137787  .00001824  00000-0  13266-3 0  9999,2 54053  53.2176 170.6979 0001554  56.2246 303.8894 15.08838886 11082,6917.884,95.438,540.8240000000002,538.674,0.0
54053.0,STARLINK-5176,PAYLOAD,2022-12-31 17:40:19,15.088412300000002,0.0001623,53.2167,169.5088,57.9737,302.1412,0.00013317,1.832e-05,0.0,0 STARLINK-5176,1 54053U 22136C   22365.73633647  .00001832  00000-0  13317-3 0  9990,2 54053  53.2167 169.5088 0001623  57.9737 302.1412 15.08841230 11120,6917.877,95.437,540.864,538.619,0.0
